{
  "type": "FeatureCollection",
  "features": [
    {
      "type": "Feature",
      "properties": {
        "name": "Full Route",
        "description": "SF to Phoenix, Aug 2021 – Jan 2022. Simplified waypoints — replace with road-following coordinates for production."
      },
      "geometry": {
        "type": "LineString",
        "coordinates": [
          [-122.4194, 37.7749],
          [-120.0324, 39.0968],
          [-121.3153, 44.0582],
          [-122.6784, 45.5152],
          [-122.3321, 47.6062],
          [-123.4307, 48.1185],
          [-123.9226, 45.9932],
          [-123.0868, 44.0521],
          [-119.8138, 39.5296],
          [-119.2065, 40.7864],
          [-119.9722, 39.2513],
          [-118.2437, 34.0522],
          [-117.1611, 32.7157],
          [-118.2437, 34.0522],
          [-115.1398, 36.1699],
          [-118.2437, 34.0522],
          [-111.6513, 35.1983],
          [-106.6504, 35.0844],
          [-105.9378, 35.6870],
          [-105.5121, 37.7329],
          [-104.9903, 39.7392],
          [-94.5786, 39.0997],
          [-90.1994, 38.6270],
          [-86.1005, 37.1862],
          [-82.9988, 39.9612],
          [-81.6944, 41.4993],
          [-71.0589, 42.3601],
          [-70.2568, 43.6591],
          [-68.2039, 44.3876],
          [-71.0589, 42.3601],
          [-79.0377, 43.0962],
          [-79.3832, 43.6532],
          [-77.8600, 40.7934],
          [-77.0369, 38.9072],
          [-75.9780, 36.8529],
          [-80.8431, 35.2271],
          [-81.0348, 34.0007],
          [-79.9311, 32.7765],
          [-84.3880, 33.7490],
          [-82.5515, 35.5951],
          [-81.0912, 32.0809],
          [-81.0228, 29.2108],
          [-80.1373, 26.1224],
          [-80.1918, 25.7617],
          [-80.4791, 25.4479],
          [-81.7800, 24.5551],
          [-80.1918, 25.7617],
          [-82.4572, 27.9506],
          [-84.2807, 30.4383],
          [-88.0399, 30.6954],
          [-91.1871, 30.4515],
          [-95.3698, 29.7604],
          [-97.7431, 30.2672],
          [-104.2288, 32.4207],
          [-110.9747, 32.2226],
          [-112.0740, 33.4484]
        ]
      }
    }
  ]
}
